CCSDS_OMM_VERS = 2.0
CREATION_DATE  = 
ORIGINATOR     = 

OBJECT_NAME    = STARLINK-36503
OBJECT_ID      = 2026-005H
CENTER_NAME    = EARTH
REF_FRAME      = TEME
TIME_SYSTEM    = UTC
MEAN_ELEMENT_THEORY = SGP/SGP4

EPOCH          = 2026-02-09T07:29:10.205088
MEAN_MOTION    = 15.50610384
ECCENTRICITY   = .0001382
INCLINATION    = 43.0012
RA_OF_ASC_NODE = 40.2237
ARG_OF_PERICENTER = 265.8826
MEAN_ANOMALY   = 94.1876

EPHEMERIS_TYPE = 0
CLASSIFICATION_TYPE = U
NORAD_CAT_ID   = 67411
ELEMENT_SET_NO = 999
REV_AT_EPOCH   = 433
BSTAR          = .13478E-2
MEAN_MOTION_DOT = .79623E-3
MEAN_MOTION_DDOT = 0

CCSDS_OMM_VERS = 2.0
CREATION_DATE  = 
ORIGINATOR     = 

OBJECT_NAME    = STARLINK-36446
OBJECT_ID      = 2026-005J
CENTER_NAME    = EARTH
REF_FRAME      = TEME
TIME_SYSTEM    = UTC
MEAN_ELEMENT_THEORY = SGP/SGP4

EPOCH          = 2026-02-09T12:00:01.999296
MEAN_MOTION    = 15.40640212
ECCENTRICITY   = .0001114
INCLINATION    = 43.0009
RA_OF_ASC_NODE = 39.4180
ARG_OF_PERICENTER = 288.7814
MEAN_ANOMALY   = 281.5294

EPHEMERIS_TYPE = 0
CLASSIFICATION_TYPE = U
NORAD_CAT_ID   = 67412
ELEMENT_SET_NO = 999
REV_AT_EPOCH   = 565
BSTAR          = .20996E-2
MEAN_MOTION_DOT = .88248E-3
MEAN_MOTION_DDOT = 0

CCSDS_OMM_VERS = 2.0
CREATION_DATE  = 
ORIGINATOR     = 

OBJECT_NAME    = STARLINK-36442
OBJECT_ID      = 2026-005K
CENTER_NAME    = EARTH
REF_FRAME      = TEME
TIME_SYSTEM    = UTC
MEAN_ELEMENT_THEORY = SGP/SGP4

EPOCH          = 2026-02-08T23:54:42.582816
MEAN_MOTION    = 15.45476511
ECCENTRICITY   = .0009004
INCLINATION    = 43.0035
RA_OF_ASC_NODE = 42.1553
ARG_OF_PERICENTER = 250.8443
MEAN_ANOMALY   = 109.1441

EPHEMERIS_TYPE = 0
CLASSIFICATION_TYPE = U
NORAD_CAT_ID   = 67413
ELEMENT_SET_NO = 999
REV_AT_EPOCH   = 428
BSTAR          = .24307E-2
MEAN_MOTION_DOT = .121017E-2
MEAN_MOTION_DDOT = 0

CCSDS_OMM_VERS = 2.0
CREATION_DATE  = 
ORIGINATOR     = 

OBJECT_NAME    = STARLINK-36506
OBJECT_ID      = 2026-005L
CENTER_NAME    = EARTH
REF_FRAME      = TEME
TIME_SYSTEM    = UTC
MEAN_ELEMENT_THEORY = SGP/SGP4

EPOCH          = 2026-02-09T07:27:41.202720
MEAN_MOTION    = 15.50606894
ECCENTRICITY   = .000166
INCLINATION    = 43.0011
RA_OF_ASC_NODE = 40.2115
ARG_OF_PERICENTER = 234.2328
MEAN_ANOMALY   = 125.8378

EPHEMERIS_TYPE = 0
CLASSIFICATION_TYPE = U
NORAD_CAT_ID   = 67414
ELEMENT_SET_NO = 999
REV_AT_EPOCH   = 433
BSTAR          = .16611E-2
MEAN_MOTION_DOT = .9844E-3
MEAN_MOTION_DDOT = 0

CCSDS_OMM_VERS = 2.0
CREATION_DATE  = 
ORIGINATOR     = 

OBJECT_NAME    = STARLINK-36468
OBJECT_ID      = 2026-005M
CENTER_NAME    = EARTH
REF_FRAME      = TEME
TIME_SYSTEM    = UTC
MEAN_ELEMENT_THEORY = SGP/SGP4

EPOCH          = 2026-02-09T12:00:01.999296
MEAN_MOTION    = 15.41735075
ECCENTRICITY   = .0000943
INCLINATION    = 43.0006
RA_OF_ASC_NODE = 39.1775
ARG_OF_PERICENTER = 271.7376
MEAN_ANOMALY   = 37.4880

EPHEMERIS_TYPE = 0
CLASSIFICATION_TYPE = U
NORAD_CAT_ID   = 67415
ELEMENT_SET_NO = 999
REV_AT_EPOCH   = 560
BSTAR          = -.3623E-1
MEAN_MOTION_DOT = -.1422886E-1
MEAN_MOTION_DDOT = 0

CCSDS_OMM_VERS = 2.0
CREATION_DATE  = 
ORIGINATOR     = 

OBJECT_NAME    = STARLINK-36487
OBJECT_ID      = 2026-005N
CENTER_NAME    = EARTH
REF_FRAME      = TEME
TIME_SYSTEM    = UTC
MEAN_ELEMENT_THEORY = SGP/SGP4

EPOCH          = 2026-02-09T11:18:25.733952
MEAN_MOTION    = 15.40716364
ECCENTRICITY   = .0001121
INCLINATION    = 43.0011
RA_OF_ASC_NODE = 39.7026
ARG_OF_PERICENTER = 259.5415
MEAN_ANOMALY   = 100.5315

EPHEMERIS_TYPE = 0
CLASSIFICATION_TYPE = U
NORAD_CAT_ID   = 67416
ELEMENT_SET_NO = 999
REV_AT_EPOCH   = 435
BSTAR          = .14693E-2
MEAN_MOTION_DOT = .61601E-3
MEAN_MOTION_DDOT = 0

CCSDS_OMM_VERS = 2.0
CREATION_DATE  = 
ORIGINATOR     = 

OBJECT_NAME    = STARLINK-36374
OBJECT_ID      = 2026-005P
CENTER_NAME    = EARTH
REF_FRAME      = TEME
TIME_SYSTEM    = UTC
MEAN_ELEMENT_THEORY = SGP/SGP4

EPOCH          = 2026-02-09T01:15:16.223904
MEAN_MOTION    = 15.50144945
ECCENTRICITY   = .00018583
INCLINATION    = 43.0012
RA_OF_ASC_NODE = 41.7113
ARG_OF_PERICENTER = 267.0150
MEAN_ANOMALY   = 93.0497

EPHEMERIS_TYPE = 0
CLASSIFICATION_TYPE = U
NORAD_CAT_ID   = 67417
ELEMENT_SET_NO = 999
REV_AT_EPOCH   = 429
BSTAR          = -.34143226E-2
MEAN_MOTION_DOT = -.192801E-2
MEAN_MOTION_DDOT = 0

CCSDS_OMM_VERS = 2.0
CREATION_DATE  = 
ORIGINATOR     = 

OBJECT_NAME    = STARLINK-36455
OBJECT_ID      = 2026-005Q
CENTER_NAME    = EARTH
REF_FRAME      = TEME
TIME_SYSTEM    = UTC
MEAN_ELEMENT_THEORY = SGP/SGP4

EPOCH          = 2026-02-09T08:58:28.179264
MEAN_MOTION    = 15.50612291
ECCENTRICITY   = .0001559
INCLINATION    = 43.0015
RA_OF_ASC_NODE = 39.8249
ARG_OF_PERICENTER = 247.7254
MEAN_ANOMALY   = 112.3441

EPHEMERIS_TYPE = 0
CLASSIFICATION_TYPE = U
NORAD_CAT_ID   = 67418
ELEMENT_SET_NO = 999
REV_AT_EPOCH   = 434
BSTAR          = .16088E-2
MEAN_MOTION_DOT = .95307E-3
MEAN_MOTION_DDOT = 0

CCSDS_OMM_VERS = 2.0
CREATION_DATE  = 
ORIGINATOR     = 

OBJECT_NAME    = STARLINK-36424
OBJECT_ID      = 2026-005R
CENTER_NAME    = EARTH
REF_FRAME      = TEME
TIME_SYSTEM    = UTC
MEAN_ELEMENT_THEORY = SGP/SGP4

EPOCH          = 2026-02-07T09:02:00.656736
MEAN_MOTION    = 15.51099463
ECCENTRICITY   = .00008585
INCLINATION    = 43.0002
RA_OF_ASC_NODE = 51.4980
ARG_OF_PERICENTER = 256.2283
MEAN_ANOMALY   = 103.8482

EPHEMERIS_TYPE = 0
CLASSIFICATION_TYPE = U
NORAD_CAT_ID   = 67419
ELEMENT_SET_NO = 999
REV_AT_EPOCH   = 403
BSTAR          = .27918423E-2
MEAN_MOTION_DOT = .170183E-2
MEAN_MOTION_DDOT = 0

CCSDS_OMM_VERS = 2.0
CREATION_DATE  = 
ORIGINATOR     = 

OBJECT_NAME    = STARLINK-35564
OBJECT_ID      = 2026-005S
CENTER_NAME    = EARTH
REF_FRAME      = TEME
TIME_SYSTEM    = UTC
MEAN_ELEMENT_THEORY = SGP/SGP4

EPOCH          = 2026-02-09T08:57:29.060064
MEAN_MOTION    = 15.50630667
ECCENTRICITY   = .0001032
INCLINATION    = 43.0003
RA_OF_ASC_NODE = 39.8195
ARG_OF_PERICENTER = 264.8861
MEAN_ANOMALY   = 95.1881

EPHEMERIS_TYPE = 0
CLASSIFICATION_TYPE = U
NORAD_CAT_ID   = 67420
ELEMENT_SET_NO = 999
REV_AT_EPOCH   = 434
BSTAR          = .24882E-2
MEAN_MOTION_DOT = .148705E-2
MEAN_MOTION_DDOT = 0

CCSDS_OMM_VERS = 2.0
CREATION_DATE  = 
ORIGINATOR     = 

OBJECT_NAME    = STARLINK-36431
OBJECT_ID      = 2026-005T
CENTER_NAME    = EARTH
REF_FRAME      = TEME
TIME_SYSTEM    = UTC
MEAN_ELEMENT_THEORY = SGP/SGP4

EPOCH          = 2026-02-09T08:14:57.007968
MEAN_MOTION    = 15.40710247
ECCENTRICITY   = .0001053
INCLINATION    = 43.0010
RA_OF_ASC_NODE = 40.4659
ARG_OF_PERICENTER = 265.0866
MEAN_ANOMALY   = 94.9870

EPHEMERIS_TYPE = 0
CLASSIFICATION_TYPE = U
NORAD_CAT_ID   = 67421
ELEMENT_SET_NO = 999
REV_AT_EPOCH   = 433
BSTAR          = .21136E-2
MEAN_MOTION_DOT = .89053E-3
MEAN_MOTION_DDOT = 0

CCSDS_OMM_VERS = 2.0
CREATION_DATE  = 
ORIGINATOR     = 

OBJECT_NAME    = STARLINK-36418
OBJECT_ID      = 2026-005U
CENTER_NAME    = EARTH
REF_FRAME      = TEME
TIME_SYSTEM    = UTC
MEAN_ELEMENT_THEORY = SGP/SGP4

EPOCH          = 2026-02-09T12:00:01.999296
MEAN_MOTION    = 15.40644879
ECCENTRICITY   = .0000779
INCLINATION    = 43.0009
RA_OF_ASC_NODE = 39.2649
ARG_OF_PERICENTER = 278.3961
MEAN_ANOMALY   = 354.1088

EPHEMERIS_TYPE = 0
CLASSIFICATION_TYPE = U
NORAD_CAT_ID   = 67422
ELEMENT_SET_NO = 999
REV_AT_EPOCH   = 560
BSTAR          = .20565E-2
MEAN_MOTION_DOT = .86422E-3
MEAN_MOTION_DDOT = 0

