STARLINK-36503          
1 67411U 26005H   26040.31192367  .00079623  00000+0  13478-2 0  9997
2 67411  43.0012  40.2237 0001382 265.8826  94.1876 15.50610384  4338
STARLINK-36446          
1 67412U 26005J   26040.50002314  .00088248  00000+0  20996-2 0  9997
2 67412  43.0009  39.4180 0001114 288.7814 281.5294 15.40640212  5650
STARLINK-36442          
1 67413U 26005K   26039.99632619  .00121017  00000+0  24307-2 0  9998
2 67413  43.0035  42.1553 0009004 250.8443 109.1441 15.45476511  4280
STARLINK-36506          
1 67414U 26005L   26040.31089355  .00098440  00000+0  16611-2 0  9992
2 67414  43.0011  40.2115 0001660 234.2328 125.8378 15.50606894  4331
STARLINK-36468          
1 67415U 26005M   26040.50002314 -.01422886  00000+0 -36230-1 0  9990
2 67415  43.0006  39.1775 0000943 271.7376  37.4880 15.41735075  5608
STARLINK-36487          
1 67416U 26005N   26040.47113118  .00061601  00000+0  14693-2 0  9993
2 67416  43.0011  39.7026 0001121 259.5415 100.5315 15.40716364  4352
STARLINK-36374          
1 67417U 26005P   26040.05227111 -.00192801  00000+0 -34143-2 0  9998
2 67417  43.0012  41.7113 0001858 267.0150  93.0497 15.50144945  4292
STARLINK-36455          
1 67418U 26005Q   26040.37393726  .00095307  00000+0  16088-2 0  9999
2 67418  43.0015  39.8249 0001559 247.7254 112.3441 15.50612291  4346
STARLINK-36424          
1 67419U 26005R   26038.37639649  .00170183  00000+0  27918-2 0  9994
2 67419  43.0002  51.4980 0000858 256.2283 103.8482 15.51099463  4030
STARLINK-35564          
1 67420U 26005S   26040.37325301  .00148705  00000+0  24882-2 0  9998
2 67420  43.0003  39.8195 0001032 264.8861  95.1881 15.50630667  4349
STARLINK-36431          
1 67421U 26005T   26040.34371537  .00089053  00000+0  21136-2 0  9997
2 67421  43.0010  40.4659 0001053 265.0866  94.9870 15.40710247  4338
STARLINK-36418          
1 67422U 26005U   26040.50002314  .00086422  00000+0  20565-2 0  9992
2 67422  43.0009  39.2649 0000779 278.3961 354.1088 15.40644879  5609
